ONEWEB-0564             
1 55801U 23029F   25345.93961162  .00000100  00000+0  21349-3 0  9993
2 55801  87.9194 311.8129 0001775  95.0812 265.0524 13.20769616136431
ONEWEB-0638             
1 55802U 23029G   25345.99108703 -.00000119  00000+0 -35470-3 0  9996
2 55802  87.8984 327.0633 0002111  96.4849 263.6521 13.14503979134808
ONEWEB-0639             
1 55803U 23029H   25345.99188844  .00000045  00000+0  78855-4 0  9992
2 55803  87.9194 342.2284 0002518  66.3975 293.7422 13.19724964134214
ONEWEB-0640             
1 55804U 23029J   25346.00059684  .00000012  00000+0 -25326-5 0  9996
2 55804  87.8988 327.0489 0002540  89.6612 270.4809 13.14503580134826
ONEWEB-0641             
1 55805U 23029K   25345.98714717  .00000050  00000+0  93759-4 0  9993
2 55805  87.9202 342.2104 0001872  83.3757 276.7588 13.19725604134223
ONEWEB-0642             
1 55806U 23029L   25345.98241102  .00000048  00000+0  87123-4 0  9992
2 55806  87.9193 342.2343 0002159  64.2004 295.9351 13.19725240134216
ONEWEB-0643             
1 55807U 23029M   25345.97046145 -.00000120  00000+0 -35836-3 0  9998
2 55807  87.8994 327.0412 0001842  62.6199 297.5118 13.14503784134792
ONEWEB-0644             
1 55808U 23029N   25345.97767610  .00000003  00000+0 -25284-4 0  9992
2 55808  87.9190 342.2447 0001846  75.9262 284.2076 13.19726534134219
